0 CZ-2 DEB
1 38659U 09072G   13281.30719931  .00000485  00000-0  15641-2 0  1142
2 38659 100.3754 316.6655 0135288 026.1981 334.5916 13.04853809179121
0 CZ-2 DEB
1 38659U 09072G   13282.91732204  .00000485  00000-0  15641-2 0  1159
2 38659 100.3740 318.2112 0136115 022.1653 338.5198 13.04855745179334
0 CZ-2 DEB
1 38659U 09072G   13284.29742671  .00000485  00000-0  15641-2 0  1162
2 38659 100.3755 319.5417 0135985 019.3706 341.2417 13.04856814179516
0 CZ-2 DEB
1 38659U 09072G   13285.90755169  .00000485  00000-0  15641-2 0  1178
2 38659 100.3716 321.0831 0137010 015.3806 345.1330 13.04857615179729
0 CZ-2 DEB
1 38659U 09072G   13287.28765390  .00000485  00000-0  15641-2 0  1189
2 38659 100.3752 322.4168 0136101 012.8724 347.5670 13.04858189179908
0 CZ-2 DEB
1 38659U 09072G   13288.89777310  .00000486  00000-0  15641-2 0  1194
2 38659 100.3667 323.9463 0139685 008.2726 352.0024 13.04858623180110
0 CZ-2 DEB
1 38659U 09072G   13290.27788517  .00000486  00000-0  15641-2 0  1202
2 38659 100.3694 325.2788 0138444 005.5973 354.6180 13.04857733180292
0 CZ-2 DEB
1 38659U 09072G   13291.27463406  .00000486  00000-0  15641-2 0  1211
2 38659 100.3697 326.2366 0139894 003.6361 356.5065 13.04856488180422
0 CZ-2 DEB
1 38659U 09072G   13291.35132054  .00000484  00000-0  15641-2 0  1221
2 38659 100.3720 326.3185 0134332 003.5849 356.6673 13.04854821180437
0 CZ-2 DEB
1 38659U 09072G   13292.04136217  .00000485  00000-0  15641-2 0  1235
2 38659 100.3697 326.9756 0137674 001.7671 358.3435 13.04855002180522
0 CZ-2 DEB
1 38659U 09072G   13293.34480250  .00000484  00000-0  15641-2 0  1248
2 38659 100.3736 328.2316 0135519 359.3962 000.6876 13.04855302180691
